CCSDS_OMM_VERS,COMMENT,CREATION_DATE,ORIGINATOR,OBJECT_NAME,OBJECT_ID,CENTER_NAME,REF_FRAME,TIME_SYSTEM,MEAN_ELEMENT_THEORY,EPOCH,MEAN_MOTION,ECCENTRICITY,INCLINATION,RA_OF_ASC_NODE,ARG_OF_PERICENTER,MEAN_ANOMALY,EPHEMERIS_TYPE,CLASSIFICATION_TYPE,NORAD_CAT_ID,ELEMENT_SET_NO,REV_AT_EPOCH,BSTAR,MEAN_MOTION_DOT,MEAN_MOTION_DDOT,SEMIMAJOR_AXIS,PERIOD,APOAPSIS,PERIAPSIS,OBJECT_TYPE,RCS_SIZE,COUNTRY_CODE,LAUNCH_DATE,SITE,DECAY_DATE,FILE,GP_ID,TLE_LINE0,TLE_LINE1,TLE_LINE2,NORAD_KEY,JCAT,DeepCat,Satcat,Piece,Active,Type,Name,LDate,Parent,Owner,State,SDate,ExpandedStatus,DDate,ODate,Period,Perigee,PF,Apogee,AF,Inc,IF,OpOrbit,SATCAT_KEY
3.0,GENERATED VIA SPACE-TRACK.ORG API,2026-05-06T14:46:56,18 SPCS,TIANLIAN 1-02,2011-032A,EARTH,TEME,UTC,SGP4,2026-05-06T05:56:59.533728,0.98996243,0.0007058,5.4467,67.7887,268.1168,264.8122,0,U,37737,999,4368,0.00000000000000,-0.00000099,0.0000000000000,42526.147,1454.601,36178.027,36117.997,PAYLOAD,LARGE,PRC,2011-07-11,XSC,,5177118,322296284,0 TIANLIAN 1-02,1 37737U 11032A   26126.24791127 -.00000099  00000-0  00000+0 0  9992,2 37737   5.4467  67.7887 0007058 268.1168 264.8122  0.98996243 43686,37737,S37737,-,37737,2011-032A,P,P,Tian Lian 1-02,2011 Jul 11,S37738,CAST,CN,2011 Jul 11 1607?,In Earth orbit,-,2026 May  5 ,    1454.595 ,   36117, ,   36178, ,  5.44 , ,GEO/ID,37737
3.0,GENERATED VIA SPACE-TRACK.ORG API,2026-05-06T14:46:56,18 SPCS,COSMOS 2473,2011-048A,EARTH,TEME,UTC,SGP4,2026-05-06T10:39:24.383808,1.00237654,0.0003948,5.472,73.9846,134.7474,12.6187,0,U,37806,999,705,0.00000000000000,0.00000132,0.0000000000000,42174.303,1436.586,35812.818,35779.517,PAYLOAD,LARGE,CIS,2011-09-20,TTMTR,,5177120,322296310,0 COSMOS 2473,1 37806U 11048A   26126.44403222  .00000132  00000-0  00000+0 0  9991,2 37806   5.4720  73.9846 0003948 134.7474  12.6187  1.00237654  7050,37806,S37806,-,37806,2011-048A,P,P,Kosmos-2473,2011 Sep 20,S37807,VVKOV,RU,2011 Sep 21 0748,In Earth orbit,-,2026 May  5 ,    1436.594 ,   35779, ,   35812, ,  5.47 , ,GEO/ID,37806
3.0,GENERATED VIA SPACE-TRACK.ORG API,2026-05-06T15:06:46,18 SPCS,ICO G-1,2008-016A,EARTH,TEME,UTC,SGP4,2026-05-06T08:19:38.786016,1.00271771,0.0002246,5.53,36.2475,356.2477,223.7596,0,U,32763,999,6612,0.00000000000000,-0.00000164,0.0000000000000,42164.736,1436.097,35796.071,35777.131,PAYLOAD,LARGE,US,2008-04-14,AFETR,,5177793,322312780,0 ICO G-1,1 32763U 08016A   26126.34697669 -.00000164  00000-0  00000+0 0  9994,2 32763   5.5300  36.2475 0002246 356.2477 223.7596  1.00271771 66126,32763,S32763,-,32763,2008-016A,P,P,D1,2008 Apr 14,S32764,DISHE,US,2008 Apr 14 2042,In Earth orbit,-,2026 May  5 ,    1436.125 ,   35777, ,   35796, ,  5.53 , ,GEO/I,32763
3.0,GENERATED VIA SPACE-TRACK.ORG API,2026-05-06T10:08:52,18 SPCS,HYLAS 1,2010-065A,EARTH,TEME,UTC,SGP4,2026-05-06T02:56:18.772800,1.00273455,0.00016047,5.5376,73.5215,310.5439,257.8182,0,U,37237,999,646,0.00000000000000,0.00000098,0.0000000000000,42164.264,1436.073,35792.895,35779.363,PAYLOAD,LARGE,UK,2010-11-26,FRGUI,,5176958,322271004,0 HYLAS 1,1 37237U 10065A   26126.12243950  .00000098  00000-0  00000-0 0  9994,2 37237   5.5376  73.5215 0001605 310.5439 257.8182  1.00273455  6466,37237,S37237,-,37237,2010-065A,P,P,Hylas,2010 Nov 26,S37239,AVANTI,UK,2010 Nov 26 1913,In Earth orbit,-,2026 May  5 ,    1436.078 ,   35779, ,   35793, ,  5.54 , ,GEO/I,37237
3.0,GENERATED VIA SPACE-TRACK.ORG API,2026-05-06T14:46:56,18 SPCS,YURI (BSE),1978-039A,EARTH,TEME,UTC,SGP4,2026-05-06T11:41:25.936800,1.00213495,0.0016113,5.5755,284.4027,327.1755,203.0741,0,U,10792,999,11834,0.00000000000000,0.00000095,0.0000000000000,42181.081,1436.932,35870.912,35734.979,PAYLOAD,LARGE,JPN,1978-04-07,AFETR,,5177201,322298373,0 YURI (BSE),1 10792U 78039A   26126.48710575  .00000095  00000-0  00000+0 0  9993,2 10792   5.5755 284.4027 0016113 327.1755 203.0741  1.00213495118346,10792,S10792,-,10792,1978-039A,P,P,Yuri,1978 Apr  7,S10794,JAXA,J,1978 Apr  7 2225,In Earth orbit,-,2026 May  5 ,    1436.939 ,   35734, ,   35871, ,  5.58 , ,GEO/ID,10792
3.0,GENERATED VIA SPACE-TRACK.ORG API,2026-05-06T14:46:56,18 SPCS,SMS 2,1975-011A,EARTH,TEME,UTC,SGP4,2026-05-06T06:13:57.907200,0.99515294,0.0011954,5.5756,283.7689,280.1704,100.6092,0,U,7648,999,13526,0.00000000000000,-0.00000199,0.0000000000000,42378.146,1447.014,36050.67,35949.352,PAYLOAD,LARGE,US,1975-02-06,AFETR,,5177157,322297804,0 SMS 2,1  7648U 75011A   26126.25969800 -.00000199  00000-0  00000+0 0  9994,2  7648   5.5756 283.7689 0011954 280.1704 100.6092  0.99515294135269,7648,S07648,-,07648,1975-011A,P,P,SMS 2,1975 Feb  6,S08559,GSFC,US,1975 Feb  6 2231,In Earth orbit,-,2026 May  5 ,    1447.014 ,   35949, ,   36050, ,  5.58 , ,GEO/ID,7648
3.0,GENERATED VIA SPACE-TRACK.ORG API,2026-05-06T02:32:52,18 SPCS,PALAPA D,2009-046A,EARTH,TEME,UTC,SGP4,2026-05-05T11:09:25.970688,0.98746654,0.0017146,5.5983,75.9666,33.9279,326.0418,0,U,35812,999,6096,0.00000000000000,0.00000032,0.0000000000000,42597.775,1458.277,36292.678,36146.602,PAYLOAD,LARGE,INDO,2009-08-31,XSC,,5176277,322221997,0 PALAPA D,1 35812U 09046A   26125.46488392  .00000032  00000-0  00000-0 0  9993,2 35812   5.5983  75.9666 0017146  33.9279 326.0418  0.98746654 60966,35812,S35812,-,35812,2009-046A,P,P,Palapa D,2009 Aug 31,S35813,INDOO,ID,2009 Aug 31 0954?,In Earth orbit,-,2026 May  4 ,    1458.283 ,   36146, ,   36292, ,  5.60 , ,GEO/ID,35812
3.0,GENERATED VIA SPACE-TRACK.ORG API,2026-05-06T14:56:52,18 SPCS,INTELSAT 907,2003-007A,EARTH,TEME,UTC,SGP4,2026-05-06T12:36:05.229792,0.99156997,0.0005089,5.6339,73.0712,90.938,147.2961,0,U,27683,999,8477,0.00000000000000,0.00000030,0.0000000000000,42480.172,1452.242,36123.655,36080.419,PAYLOAD,LARGE,ITSO,2003-02-15,FRGUI,,5177618,322308207,0 INTELSAT 907,1 27683U 03007A   26126.52506053  .00000030  00000-0  00000+0 0  9991,2 27683   5.6339  73.0712 0005089  90.9380 147.2961  0.99156997 84776,27683,S27683,-,27683,2003-007A,P,P      G,INTELSAT 907,2003 Feb 15,S27684,SESINTU,US,2003 Feb 15 0720,In Earth orbit,-,2026 May  4 ,    1452.240 ,   36080, ,   36123, ,  5.63 , ,GEO/ID,27683
3.0,GENERATED VIA SPACE-TRACK.ORG API,2026-05-06T14:46:56,18 SPCS,VENESAT-1,2008-055A,EARTH,TEME,UTC,SGP4,2026-05-06T11:41:31.517376,0.99270465,0.0063517,5.6545,73.5002,194.0423,245.6494,0,U,33414,999,6404,0.00000000000000,-0.00000200,0.0000000000000,42447.795,1450.583,36339.276,35800.045,PAYLOAD,LARGE,VENZ,2008-10-29,XSC,,5177015,322293666,0 VENESAT-1,1 33414U 08055A   26126.48717034 -.00000200  00000-0  00000+0 0  9996,2 33414   5.6545  73.5002 0063517 194.0423 245.6494  0.99270465 64044,33414,S33414,-,33414,2008-055A,P,P,Simon Bolivar,2008 Oct 29,S33415,ABAE,VE,2008 Oct 29 1720?,In Earth orbit,-,2026 May  4 ,    1450.570 ,   35799, ,   36339, ,  5.65 , ,GEO/ID,33414
3.0,GENERATED VIA SPACE-TRACK.ORG API,2026-05-06T14:46:56,18 SPCS,GEOS 2,1978-071A,EARTH,TEME,UTC,SGP4,2026-05-06T07:49:39.148320,0.99380503,0.0005109,5.674,286.9242,14.9775,2.148,0,U,10981,999,17358,0.00000000000000,-0.00000257,0.0000000000000,42416.456,1448.976,36059.992,36016.651,PAYLOAD,LARGE,ESA,1978-07-14,AFETR,,5177205,322298926,0 GEOS 2,1 10981U 78071A   26126.32614755 -.00000257  00000-0  00000+0 0  9996,2 10981   5.6740 286.9242 0005109  14.9775   2.1480  0.99380503173580,10981,S10981,-,10981,1978-071A,P,P,Geos 2,1978 Jul 14,S10983,ESA,I-ESA,1978 Jul 14 1108,In Earth orbit,-,2026 May  4 ,    1448.970 ,   36016, ,   36060, ,  5.68 , ,GEO/ID,10981
3.0,GENERATED VIA SPACE-TRACK.ORG API,2026-05-06T14:56:52,18 SPCS,HIMAWARI 7,2006-004A,EARTH,TEME,UTC,SGP4,2026-05-06T06:53:24.124128,0.99077518,0.0006483,5.6758,73.5455,175.626,203.4536,0,U,28937,999,7381,0.00000000000000,-0.00000232,0.0000000000000,42502.887,1453.407,36152.306,36097.197,PAYLOAD,LARGE,JPN,2006-02-18,TNSTA,,5177642,322309028,0 HIMAWARI 7,1 28937U 06004A   26126.28708477 -.00000232  00000-0  00000+0 0  9996,2 28937   5.6758  73.5455 0006483 175.6260 203.4536  0.99077518 73817,28937,S28937,-,28937,2006-004A,P,P,Himawari-7,2006 Feb 18,S28938,JCAB/JMA,J,2006 Feb 18 0655,In Earth orbit,-,2026 May  5 ,    1453.400 ,   36096, ,   36152, ,  5.67 , ,GEO/ID,28937
3.0,GENERATED VIA SPACE-TRACK.ORG API,2026-05-06T14:46:56,18 SPCS,EKRAN 4,1979-087A,EARTH,TEME,UTC,SGP4,2026-05-06T11:53:17.299104,1.00281867,0.0008864,5.6975,285.2162,159.5668,54.5234,0,U,11561,999,4695,0.00000000000000,-0.00000280,0.0000000000000,42161.906,1435.953,35821.143,35746.399,PAYLOAD,MEDIUM,CIS,1979-10-03,TTMTR,,5177214,322299042,0 EKRAN 4,1 11561U 79087A   26126.49533911 -.00000280  00000-0  00000+0 0  9997,2 11561   5.6975 285.2162 0008864 159.5668  54.5234  1.00281867 46950,11561,S11561,-,11561,1979-087A,P,P,Ekran,1979 Oct  3,S17939,KS,SU,1979 Oct  3 2349?,In Earth orbit,-,2026 May  4 ,    1435.945 ,   35746, ,   35820, ,  5.70 , ,GEO/I,11561
3.0,GENERATED VIA SPACE-TRACK.ORG API,2026-05-06T14:56:52,18 SPCS,EUTE 7A (EUTE W3A),2004-008A,EARTH,TEME,UTC,SGP4,2026-05-06T12:53:34.168992,0.98807259,0.0001483,5.7252,72.411,63.3623,150.0606,0,U,28187,999,8094,0.00000000000000,0.00000050,0.0000000000000,42580.355,1457.383,36208.534,36195.905,PAYLOAD,LARGE,EUTE,2004-03-15,TTMTR,,5177629,322308357,0 EUTE 7A (EUTE W3A),1 28187U 04008A   26126.53720103  .00000050  00000-0  00000+0 0  9990,2 28187   5.7252  72.4110 0001483  63.3623 150.0606  0.98807259 80940,28187,S28187,-,28187,2004-008A,P,P,EUTELSAT 139 WEST A,2004 Mar 15,S28656,EUTSA,F,2004 Mar 16 0816,In Earth orbit,-,2026 May  5 ,    1457.388 ,   36196, ,   36208, ,  5.72 , ,GEO/ID,28187
